{"fetched_at":"2026-07-07T18:29:09.813Z","source":"https://celestrak.org/NORAD/elements/gp.php?GROUP=spire&FORMAT=JSON","constellation":"spire","records":[{"OBJECT_NAME":"LEMUR-1","OBJECT_ID":"2014-033AL","EPOCH":"2026-07-07T08:52:22.060128","CLASSIFICATION_TYPE":"U","MEAN_MOTION":14.85321522,"ECCENTRICITY":0.004843,"INCLINATION":97.7901,"RA_OF_ASC_NODE":337.7295,"ARG_OF_PERICENTER":13.6614,"MEAN_ANOMALY":346.59,"EPHEMERIS_TYPE":0,"NORAD_CAT_ID":40044,"ELEMENT_SET_NO":999,"REV_AT_EPOCH":64846,"BSTAR":0.00017399,"MEAN_MOTION_DOT":0.00001471,"MEAN_MOTION_DDOT":0},{"OBJECT_NAME":"LEMUR-2-GREENBERG","OBJECT_ID":"2017-042N","EPOCH":"2026-07-07T11:17:36.910176","CLASSIFICATION_TYPE":"U","MEAN_MOTION":15.31983818,"ECCENTRICITY":0.0007168,"INCLINATION":97.3833,"RA_OF_ASC_NODE":9.0113,"ARG_OF_PERICENTER":292.6231,"MEAN_ANOMALY":67.4252,"EPHEMERIS_TYPE":0,"NORAD_CAT_ID":42837,"ELEMENT_SET_NO":999,"REV_AT_EPOCH":49149,"BSTAR":0.00036947,"MEAN_MOTION_DOT":0.00011344,"MEAN_MOTION_DDOT":0},{"OBJECT_NAME":"LEMUR-2-ANDIS","OBJECT_ID":"2017-042P","EPOCH":"2026-07-06T17:39:02.431584","CLASSIFICATION_TYPE":"U","MEAN_MOTION":15.3567897,"ECCENTRICITY":0.0007107,"INCLINATION":97.3685,"RA_OF_ASC_NODE":8.5318,"ARG_OF_PERICENTER":293.7973,"MEAN_ANOMALY":66.2525,"EPHEMERIS_TYPE":0,"NORAD_CAT_ID":42838,"ELEMENT_SET_NO":999,"REV_AT_EPOCH":49145,"BSTAR":0.00051664,"MEAN_MOTION_DOT":0.00017878,"MEAN_MOTION_DDOT":0},{"OBJECT_NAME":"LEMUR-2-MONSON","OBJECT_ID":"2017-042Q","EPOCH":"2026-07-07T10:59:43.408320","CLASSIFICATION_TYPE":"U","MEAN_MOTION":15.28615242,"ECCENTRICITY":0.0005147,"INCLINATION":97.4095,"RA_OF_ASC_NODE":8.9398,"ARG_OF_PERICENTER":281.0533,"MEAN_ANOMALY":79.0128,"EPHEMERIS_TYPE":0,"NORAD_CAT_ID":42839,"ELEMENT_SET_NO":999,"REV_AT_EPOCH":49126,"BSTAR":0.0003728,"MEAN_MOTION_DOT":0.00010309,"MEAN_MOTION_DDOT":0},{"OBJECT_NAME":"LEMUR-2-FURIAUS","OBJECT_ID":"2017-042R","EPOCH":"2026-07-07T06:46:26.532192","CLASSIFICATION_TYPE":"U","MEAN_MOTION":15.30948738,"ECCENTRICITY":0.0006636,"INCLINATION":97.3782,"RA_OF_ASC_NODE":6.7334,"ARG_OF_PERICENTER":0.8117,"MEAN_ANOMALY":359.3134,"EPHEMERIS_TYPE":0,"NORAD_CAT_ID":42840,"ELEMENT_SET_NO":999,"REV_AT_EPOCH":49128,"BSTAR":0.00041096,"MEAN_MOTION_DOT":0.00012226,"MEAN_MOTION_DDOT":0},{"OBJECT_NAME":"LEMUR-2-PETERG","OBJECT_ID":"2017-042S","EPOCH":"2026-07-07T10:45:59.616288","CLASSIFICATION_TYPE":"U","MEAN_MOTION":15.34821414,"ECCENTRICITY":0.0002863,"INCLINATION":97.4001,"RA_OF_ASC_NODE":13.5239,"ARG_OF_PERICENTER":258.0828,"MEAN_ANOMALY":102.0094,"EPHEMERIS_TYPE":0,"NORAD_CAT_ID":42841,"ELEMENT_SET_NO":999,"REV_AT_EPOCH":49154,"BSTAR":0.00047712,"MEAN_MOTION_DOT":0.00016045,"MEAN_MOTION_DDOT":0},{"OBJECT_NAME":"LEMUR-2-DEMBITZ","OBJECT_ID":"2017-042T","EPOCH":"2026-07-06T10:51:09.921888","CLASSIFICATION_TYPE":"U","MEAN_MOTION":15.30918269,"ECCENTRICITY":0.0005291,"INCLINATION":97.3834,"RA_OF_ASC_NODE":8.9463,"ARG_OF_PERICENTER":313.9812,"MEAN_ANOMALY":46.0993,"EPHEMERIS_TYPE":0,"NORAD_CAT_ID":42842,"ELEMENT_SET_NO":999,"REV_AT_EPOCH":49129,"BSTAR":0.00057818256,"MEAN_MOTION_DOT":0.00017223,"MEAN_MOTION_DDOT":0},{"OBJECT_NAME":"LEMUR-2-ZACHARY","OBJECT_ID":"2017-042W","EPOCH":"2026-07-07T12:15:32.904000","CLASSIFICATION_TYPE":"U","MEAN_MOTION":15.52177976,"ECCENTRICITY":0.000233,"INCLINATION":97.3592,"RA_OF_ASC_NODE":20.6045,"ARG_OF_PERICENTER":286.9112,"MEAN_ANOMALY":73.1885,"EPHEMERIS_TYPE":0,"NORAD_CAT_ID":42845,"ELEMENT_SET_NO":999,"REV_AT_EPOCH":49235,"BSTAR":0.00057787,"MEAN_MOTION_DOT":0.00034993,"MEAN_MOTION_DDOT":0},{"OBJECT_NAME":"LEMUR-2-AMANDA-SVANTE","OBJECT_ID":"2021-034B","EPOCH":"2026-07-06T04:46:01.886016","CLASSIFICATION_TYPE":"U","MEAN_MOTION":15.3555216,"ECCENTRICITY":0.00040367,"INCLINATION":97.5745,"RA_OF_ASC_NODE":266,"ARG_OF_PERICENTER":164.2126,"MEAN_ANOMALY":195.9244,"EPHEMERIS_TYPE":0,"NORAD_CAT_ID":48269,"ELEMENT_SET_NO":999,"REV_AT_EPOCH":28397,"BSTAR":0.001020665,"MEAN_MOTION_DOT":0.00035315,"MEAN_MOTION_DDOT":0},{"OBJECT_NAME":"LEMUR-2-SPECIAL-K","OBJECT_ID":"2021-034F","EPOCH":"2026-07-06T05:41:36.307392","CLASSIFICATION_TYPE":"U","MEAN_MOTION":15.71456484,"ECCENTRICITY":0.0005773,"INCLINATION":97.5636,"RA_OF_ASC_NODE":275.5626,"ARG_OF_PERICENTER":220.9079,"MEAN_ANOMALY":139.175,"EPHEMERIS_TYPE":0,"NORAD_CAT_ID":48273,"ELEMENT_SET_NO":999,"REV_AT_EPOCH":28467,"BSTAR":0.0018452951,"MEAN_MOTION_DOT":0.00241712,"MEAN_MOTION_DDOT":0},{"OBJECT_NAME":"LEMUR-2-EMBRIONOVIS","OBJECT_ID":"2023-084AQ","EPOCH":"2026-07-07T08:57:42.516000","CLASSIFICATION_TYPE":"U","MEAN_MOTION":15.38085565,"ECCENTRICITY":0.0007751,"INCLINATION":97.6318,"RA_OF_ASC_NODE":333.3577,"ARG_OF_PERICENTER":236.9428,"MEAN_ANOMALY":123.1072,"EPHEMERIS_TYPE":0,"NORAD_CAT_ID":56970,"ELEMENT_SET_NO":999,"REV_AT_EPOCH":17078,"BSTAR":0.00026323,"MEAN_MOTION_DOT":0.0000979,"MEAN_MOTION_DDOT":0},{"OBJECT_NAME":"LEMUR-2-DEVERILL-M-T","OBJECT_ID":"2023-100F","EPOCH":"2026-07-07T01:10:38.891136","CLASSIFICATION_TYPE":"U","MEAN_MOTION":15.40798333,"ECCENTRICITY":0.0004826,"INCLINATION":99.4457,"RA_OF_ASC_NODE":232.5577,"ARG_OF_PERICENTER":332.4144,"MEAN_ANOMALY":27.6839,"EPHEMERIS_TYPE":0,"NORAD_CAT_ID":57391,"ELEMENT_SET_NO":999,"REV_AT_EPOCH":16430,"BSTAR":0.00051594,"MEAN_MOTION_DOT":0.00021057,"MEAN_MOTION_DDOT":0},{"OBJECT_NAME":"LEMUR-2-BASS","OBJECT_ID":"2023-174D","EPOCH":"2026-07-07T12:04:19.390080","CLASSIFICATION_TYPE":"U","MEAN_MOTION":15.43808592,"ECCENTRICITY":0.0007978,"INCLINATION":97.384,"RA_OF_ASC_NODE":273.5081,"ARG_OF_PERICENTER":101.1477,"MEAN_ANOMALY":259.0668,"EPHEMERIS_TYPE":0,"NORAD_CAT_ID":58259,"ELEMENT_SET_NO":999,"REV_AT_EPOCH":14849,"BSTAR":0.00027695,"MEAN_MOTION_DOT":0.00012471,"MEAN_MOTION_DDOT":0},{"OBJECT_NAME":"LEMUR-2-JK0903EM1407","OBJECT_ID":"2023-174CJ","EPOCH":"2026-07-07T04:38:09.062016","CLASSIFICATION_TYPE":"U","MEAN_MOTION":15.5276312,"ECCENTRICITY":0.0004296,"INCLINATION":97.3914,"RA_OF_ASC_NODE":279.2419,"ARG_OF_PERICENTER":58.9562,"MEAN_ANOMALY":301.2112,"EPHEMERIS_TYPE":0,"NORAD_CAT_ID":58336,"ELEMENT_SET_NO":999,"REV_AT_EPOCH":14883,"BSTAR":0.00033311,"MEAN_MOTION_DOT":0.00020526,"MEAN_MOTION_DDOT":0},{"OBJECT_NAME":"LEMUR-2-MJR092620","OBJECT_ID":"2023-174CN","EPOCH":"2026-07-07T11:49:07.095936","CLASSIFICATION_TYPE":"U","MEAN_MOTION":15.4565982,"ECCENTRICITY":0.0006034,"INCLINATION":97.3968,"RA_OF_ASC_NODE":278.9055,"ARG_OF_PERICENTER":55.9255,"MEAN_ANOMALY":304.2566,"EPHEMERIS_TYPE":0,"NORAD_CAT_ID":58340,"ELEMENT_SET_NO":999,"REV_AT_EPOCH":14878,"BSTAR":0.00027764,"MEAN_MOTION_DOT":0.0001331,"MEAN_MOTION_DDOT":0},{"OBJECT_NAME":"LEMUR-2-NIMBUS2000","OBJECT_ID":"2024-022A","EPOCH":"2026-07-07T00:31:18.539040","CLASSIFICATION_TYPE":"U","MEAN_MOTION":15.40867104,"ECCENTRICITY":0.000953,"INCLINATION":97.4093,"RA_OF_ASC_NODE":38.2803,"ARG_OF_PERICENTER":55.1826,"MEAN_ANOMALY":305.0316,"EPHEMERIS_TYPE":0,"NORAD_CAT_ID":58899,"ELEMENT_SET_NO":999,"REV_AT_EPOCH":13532,"BSTAR":0.00040709,"MEAN_MOTION_DOT":0.00016668,"MEAN_MOTION_DDOT":0}]}
